{
  "type": "FeatureCollection",
  "features": [
    {
      "type": "Feature",
      "properties": {
        "norad_id": 43783,
        "name": "KAZSTSAT",
        "group": "resource",
        "lat": -33.922478818453975,
        "lon": 40.117868440134,
        "alt_km": 572.6318520189006,
        "timestamp": "2025-12-26T11:25:44.877029+00:00",
        "meta_object_name": "KAZSTSAT",
        "meta_object_id": "2018-099AB",
        "meta_epoch": "2025-12-26T01:58:17.402304",
        "meta_mean_motion": 14.99373179,
        "meta_eccentricity": 0.0006382,
        "meta_inclination": 97.4511,
        "meta_ra_of_asc_node": 34.6913,
        "meta_arg_of_pericenter": 270.6948,
        "meta_mean_anomaly": 89.3544,
        "meta_ephemeris_type": 0,
        "meta_classification_type": "U",
        "meta_norad_cat_id": 43783,
        "meta_element_set_no": 999,
        "meta_rev_at_epoch": 38536,
        "meta_bstar": 5.8643e-05,
        "meta_mean_motion_dot": 6.62e-06,
        "meta_mean_motion_ddot": 0,
        "tle_line1": "1 43783U 18099AB  25360.08214586  .00000662  00000+0  58643-4 0  9995",
        "tle_line2": "2 43783  97.4511  34.6913 0006382 270.6948  89.3544 14.99373179385366"
      },
      "geometry": {
        "type": "Point",
        "coordinates": [
          40.117868440134,
          -33.922478818453975
        ]
      }
    },
    {
      "type": "Feature",
      "properties": {
        "norad_id": 43831,
        "name": "SAUDISAT 5A",
        "group": "resource",
        "lat": -59.89402974871216,
        "lon": -132.43076646116776,
        "alt_km": 502.17362489500647,
        "timestamp": "2025-12-26T11:25:44.877039+00:00",
        "meta_object_name": "SAUDISAT 5A",
        "meta_object_id": "2018-102A",
        "meta_epoch": "2025-12-26T04:04:54.626880",
        "meta_mean_motion": 15.25820606,
        "meta_eccentricity": 0.001097,
        "meta_inclination": 97.333,
        "meta_ra_of_asc_node": 60.1015,
        "meta_arg_of_pericenter": 34.2854,
        "meta_mean_anomaly": 325.909,
        "meta_ephemeris_type": 0,
        "meta_classification_type": "U",
        "meta_norad_cat_id": 43831,
        "meta_element_set_no": 999,
        "meta_rev_at_epoch": 38927,
        "meta_bstar": 0.00025044,
        "meta_mean_motion_dot": 6.344e-05,
        "meta_mean_motion_ddot": 0,
        "tle_line1": "1 43831U 18102A   25360.17007670  .00006344  00000+0  25044-3 0  9999",
        "tle_line2": "2 43831  97.3330  60.1015 0010970  34.2854 325.9090 15.25820606389274"
      },
      "geometry": {
        "type": "Point",
        "coordinates": [
          -132.43076646116776,
          -59.89402974871216
        ]
      }
    },
    {
      "type": "Feature",
      "properties": {
        "norad_id": 43833,
        "name": "SAUDISAT 5B",
        "group": "resource",
        "lat": -49.462481374982424,
        "lon": 71.83702778443329,
        "alt_km": 493.5328499124171,
        "timestamp": "2025-12-26T11:25:44.877047+00:00",
        "meta_object_name": "SAUDISAT 5B",
        "meta_object_id": "2018-102C",
        "meta_epoch": "2025-12-26T05:21:12.187008",
        "meta_mean_motion": 15.26166314,
        "meta_eccentricity": 0.0011716,
        "meta_inclination": 97.3425,
        "meta_ra_of_asc_node": 62.9163,
        "meta_arg_of_pericenter": 36.1639,
        "meta_mean_anomaly": 324.039,
        "meta_ephemeris_type": 0,
        "meta_classification_type": "U",
        "meta_norad_cat_id": 43833,
        "meta_element_set_no": 999,
        "meta_rev_at_epoch": 38939,
        "meta_bstar": 0.00023141,
        "meta_mean_motion_dot": 5.919e-05,
        "meta_mean_motion_ddot": 0,
        "tle_line1": "1 43833U 18102C   25360.22305772  .00005919  00000+0  23141-3 0  9994",
        "tle_line2": "2 43833  97.3425  62.9163 0011716  36.1639 324.0390 15.26166314389392"
      },
      "geometry": {
        "type": "Point",
        "coordinates": [
          71.83702778443329,
          -49.462481374982424
        ]
      }
    },
    {
      "type": "Feature",
      "properties": {
        "norad_id": 44622,
        "name": "GAOFEN-10R",
        "group": "resource",
        "lat": -79.12748868672162,
        "lon": -4.65970646662448,
        "alt_km": 627.1934677065228,
        "timestamp": "2025-12-26T11:25:44.877057+00:00",
        "meta_object_name": "GAOFEN-10R",
        "meta_object_id": "2019-066A",
        "meta_epoch": "2025-12-26T03:42:12.790944",
        "meta_mean_motion": 14.82836413,
        "meta_eccentricity": 0.0006916,
        "meta_inclination": 98.0296,
        "meta_ra_of_asc_node": 307.7143,
        "meta_arg_of_pericenter": 2.1593,
        "meta_mean_anomaly": 357.9648,
        "meta_ephemeris_type": 0,
        "meta_classification_type": "U",
        "meta_norad_cat_id": 44622,
        "meta_element_set_no": 999,
        "meta_rev_at_epoch": 33673,
        "meta_bstar": 0.00020869,
        "meta_mean_motion_dot": 1.635e-05,
        "meta_mean_motion_ddot": 0,
        "tle_line1": "1 44622U 19066A   25360.15431471  .00001635  00000+0  20869-3 0  9994",
        "tle_line2": "2 44622  98.0296 307.7143 0006916   2.1593 357.9648 14.82836413336735"
      },
      "geometry": {
        "type": "Point",
        "coordinates": [
          -4.65970646662448,
          -79.12748868672162
        ]
      }
    },
    {
      "type": "Feature",
      "properties": {
        "norad_id": 44804,
        "name": "CARTOSAT-3",
        "group": "resource",
        "lat": 75.3034519469535,
        "lon": 29.928494872643444,
        "alt_km": 493.5535855937069,
        "timestamp": "2025-12-26T11:25:44.877066+00:00",
        "meta_object_name": "CARTOSAT-3",
        "meta_object_id": "2019-081A",
        "meta_epoch": "2025-12-26T04:46:05.235744",
        "meta_mean_motion": 15.19263553,
        "meta_eccentricity": 0.0013529,
        "meta_inclination": 97.456,
        "meta_ra_of_asc_node": 59.6097,
        "meta_arg_of_pericenter": 40.5133,
        "meta_mean_anomaly": 319.7106,
        "meta_ephemeris_type": 0,
        "meta_classification_type": "U",
        "meta_norad_cat_id": 44804,
        "meta_element_set_no": 999,
        "meta_rev_at_epoch": 33720,
        "meta_bstar": 0.00015952,
        "meta_mean_motion_dot": 3.302e-05,
        "meta_mean_motion_ddot": 0,
        "tle_line1": "1 44804U 19081A   25360.19867171  .00003302  00000+0  15952-3 0  9997",
        "tle_line2": "2 44804  97.4560  59.6097 0013529  40.5133 319.7106 15.19263553337207"
      },
      "geometry": {
        "type": "Point",
        "coordinates": [
          29.928494872643444,
          75.3034519469535
        ]
      }
    },
    {
      "type": "Feature",
      "properties": {
        "norad_id": 44819,
        "name": "GAOFEN-12 01",
        "group": "resource",
        "lat": 75.70660016340854,
        "lon": -26.21207821974614,
        "alt_km": 620.2068591665293,
        "timestamp": "2025-12-26T11:25:44.877075+00:00",
        "meta_object_name": "GAOFEN-12 01",
        "meta_object_id": "2019-082A",
        "meta_epoch": "2025-12-26T04:35:26.072736",
        "meta_mean_motion": 14.80672443,
        "meta_eccentricity": 0.0002297,
        "meta_inclination": 97.8125,
        "meta_ra_of_asc_node": 6.1192,
        "meta_arg_of_pericenter": 175.2979,
        "meta_mean_anomaly": 184.8255,
        "meta_ephemeris_type": 0,
        "meta_classification_type": "U",
        "meta_norad_cat_id": 44819,
        "meta_element_set_no": 999,
        "meta_rev_at_epoch": 32849,
        "meta_bstar": 6.9735e-05,
        "meta_mean_motion_dot": 4.85e-06,
        "meta_mean_motion_ddot": 0,
        "tle_line1": "1 44819U 19082A   25360.19127399  .00000485  00000+0  69735-4 0  9993",
        "tle_line2": "2 44819  97.8125   6.1192 0002297 175.2979 184.8255 14.80672443328497"
      },
      "geometry": {
        "type": "Point",
        "coordinates": [
          -26.21207821974614,
          75.70660016340854
        ]
      }
    },
    {
      "type": "Feature",
      "properties": {
        "norad_id": 44873,
        "name": "CSG-1",
        "group": "resource",
        "lat": -79.23732039226479,
        "lon": -45.18094790169285,
        "alt_km": 630.8724773189315,
        "timestamp": "2025-12-26T11:25:44.877084+00:00",
        "meta_object_name": "CSG-1",
        "meta_object_id": "2019-092A",
        "meta_epoch": "2025-12-26T03:46:00.259680",
        "meta_mean_motion": 14.82162022,
        "meta_eccentricity": 0.0001455,
        "meta_inclination": 97.8805,
        "meta_ra_of_asc_node": 181.2791,
        "meta_arg_of_pericenter": 85.0554,
        "meta_mean_anomaly": 275.0825,
        "meta_ephemeris_type": 0,
        "meta_classification_type": "U",
        "meta_norad_cat_id": 44873,
        "meta_element_set_no": 999,
        "meta_rev_at_epoch": 32584,
        "meta_bstar": 8.3282e-05,
        "meta_mean_motion_dot": 6.11e-06,
        "meta_mean_motion_ddot": 0,
        "tle_line1": "1 44873U 19092A   25360.15694745  .00000611  00000+0  83282-4 0  9998",
        "tle_line2": "2 44873  97.8805 181.2791 0001455  85.0554 275.0825 14.82162022325845"
      },
      "geometry": {
        "type": "Point",
        "coordinates": [
          -45.18094790169285,
          -79.23732039226479
        ]
      }
    }
  ]
}